[{"OBJECT_NAME":"STARLINK-30341","OBJECT_ID":"2023-129S","EPOCH":"2026-03-08T04:28:17.963328","MEAN_MOTION":15.03350644,"ECCENTRICITY":0.00018316,"INCLINATION":43.0034,"RA_OF_ASC_NODE":128.0013,"ARG_OF_PERICENTER":279.5727,"MEAN_ANOMALY":80.4909,"EPHEMERIS_TYPE":0,"CLASSIFICATION_TYPE":"U","NORAD_CAT_ID":57714,"ELEMENT_SET_NO":999,"REV_AT_EPOCH":14043,"BSTAR":5.9513685e-5,"MEAN_MOTION_DOT":6.16e-6,"MEAN_MOTION_DDOT":0},{"OBJECT_NAME":"CZ-6A R\/B","OBJECT_ID":"2022-031C","EPOCH":"2026-03-09T19:50:55.360896","MEAN_MOTION":15.07476837,"ECCENTRICITY":0.00174842,"INCLINATION":97.8104,"RA_OF_ASC_NODE":273.2347,"ARG_OF_PERICENTER":181.6412,"MEAN_ANOMALY":178.4761,"EPHEMERIS_TYPE":0,"CLASSIFICATION_TYPE":"U","NORAD_CAT_ID":52152,"ELEMENT_SET_NO":999,"REV_AT_EPOCH":21633,"BSTAR":0.00020233161,"MEAN_MOTION_DOT":3.012e-5,"MEAN_MOTION_DDOT":0}]
